sat26817
1 26817U 66076H   20045.98814335  .00000219  00000-0  25232-3 0  9990
2 26817  88.8382 306.1282 0039386  97.4014 263.1623 13.65332906990716
